[{"CCSDS_OMM_VERS":"2.0","COMMENT":"GENERATED VIA SPACE-TRACK.ORG API","CREATION_DATE":"2022-12-08T18:21:51","ORIGINATOR":"18 SPCS","OBJECT_NAME":"ECHOSTAR 23","OBJECT_ID":"2017-014A","CENTER_NAME":"EARTH","REF_FRAME":"TEME","TIME_SYSTEM":"UTC","MEAN_ELEMENT_THEORY":"SGP4","EPOCH":"2022-12-08T11:05:03.669792","MEAN_MOTION":"1.00270244","ECCENTRICITY":"0.00021360","INCLINATION":"0.0229","RA_OF_ASC_NODE":"358.4778","ARG_OF_PERICENTER":"264.1740","MEAN_ANOMALY":"230.9045","EPHEMERIS_TYPE":"0","CLASSIFICATION_TYPE":"U","NORAD_CAT_ID":"42070","ELEMENT_SET_NO":"999","REV_AT_EPOCH":"2102","BSTAR":"0.00000000000000","MEAN_MOTION_DOT":"-0.00000041","MEAN_MOTION_DDOT":"0.0000000000000","SEMIMAJOR_AXIS":"42165.164","PERIOD":"1436.119","APOAPSIS":"35796.035","PERIAPSIS":"35778.022","OBJECT_TYPE":"PAYLOAD","RCS_SIZE":"LARGE","COUNTRY_CODE":"US","LAUNCH_DATE":"2017-03-16","SITE":"AFETR","DECAY_DATE":null,"FILE":"3684614","GP_ID":"219770818","TLE_LINE0":"0 ECHOSTAR 23","TLE_LINE1":"1 42070U 17014A   22342.46184803 -.00000041  00000-0  00000-0 0  9999","TLE_LINE2":"2 42070   0.0229 358.4778 0002136 264.1740 230.9045  1.00270244 21024"},{"CCSDS_OMM_VERS":"2.0","COMMENT":"GENERATED VIA SPACE-TRACK.ORG API","CREATION_DATE":"2022-12-08T18:21:51","ORIGINATOR":"18 SPCS","OBJECT_NAME":"INTELSAT 32E","OBJECT_ID":"2017-007B","CENTER_NAME":"EARTH","REF_FRAME":"TEME","TIME_SYSTEM":"UTC","MEAN_ELEMENT_THEORY":"SGP4","EPOCH":"2022-12-08T07:46:42.702240","MEAN_MOTION":"1.00269745","ECCENTRICITY":"0.00001810","INCLINATION":"0.0165","RA_OF_ASC_NODE":"10.2917","ARG_OF_PERICENTER":"198.0522","MEAN_ANOMALY":"302.2165","EPHEMERIS_TYPE":"0","CLASSIFICATION_TYPE":"U","NORAD_CAT_ID":"41945","ELEMENT_SET_NO":"999","REV_AT_EPOCH":"2133","BSTAR":"0.00000000000000","MEAN_MOTION_DOT":"-0.00000254","MEAN_MOTION_DDOT":"0.0000000000000","SEMIMAJOR_AXIS":"42165.304","PERIOD":"1436.126","APOAPSIS":"35787.932","PERIAPSIS":"35786.406","OBJECT_TYPE":"PAYLOAD","RCS_SIZE":"LARGE","COUNTRY_CODE":"ITSO","LAUNCH_DATE":"2017-02-14","SITE":"FRGUI","DECAY_DATE":null,"FILE":"3684614","GP_ID":"219770805","TLE_LINE0":"0 INTELSAT 32E","TLE_LINE1":"1 41945U 17007B   22342.32410535 -.00000254  00000-0  00000-0 0  9996","TLE_LINE2":"2 41945   0.0165  10.2917 0000181 198.0522 302.2165  1.00269745 21336"},{"CCSDS_OMM_VERS":"2.0","COMMENT":"GENERATED VIA SPACE-TRACK.ORG API","CREATION_DATE":"2022-12-08T18:21:51","ORIGINATOR":"18 SPCS","OBJECT_NAME":"TELKOM 3S","OBJECT_ID":"2017-007A","CENTER_NAME":"EARTH","REF_FRAME":"TEME","TIME_SYSTEM":"UTC","MEAN_ELEMENT_THEORY":"SGP4","EPOCH":"2022-12-08T13:49:56.898336","MEAN_MOTION":"1.00270446","ECCENTRICITY":"0.00025710","INCLINATION":"0.0183","RA_OF_ASC_NODE":"330.0588","ARG_OF_PERICENTER":"281.5990","MEAN_ANOMALY":"151.1423","EPHEMERIS_TYPE":"0","CLASSIFICATION_TYPE":"U","NORAD_CAT_ID":"41944","ELEMENT_SET_NO":"999","REV_AT_EPOCH":"2123","BSTAR":"0.00000000000000","MEAN_MOTION_DOT":"-0.00000347","MEAN_MOTION_DDOT":"0.0000000000000","SEMIMAJOR_AXIS":"42165.107","PERIOD":"1436.116","APOAPSIS":"35797.813","PERIAPSIS":"35776.132","OBJECT_TYPE":"PAYLOAD","RCS_SIZE":"LARGE","COUNTRY_CODE":"INDO","LAUNCH_DATE":"2017-02-14","SITE":"FRGUI","DECAY_DATE":null,"FILE":"3684614","GP_ID":"219770562","TLE_LINE0":"0 TELKOM 3S","TLE_LINE1":"1 41944U 17007A   22342.57635299 -.00000347  00000-0  00000-0 0  9991","TLE_LINE2":"2 41944   0.0183 330.0588 0002571 281.5990 151.1423  1.00270446 21231"},{"CCSDS_OMM_VERS":"2.0","COMMENT":"GENERATED VIA SPACE-TRACK.ORG API","CREATION_DATE":"2022-12-08T18:21:51","ORIGINATOR":"18 SPCS","OBJECT_NAME":"HISPASAT 36W-1","OBJECT_ID":"2017-006A","CENTER_NAME":"EARTH","REF_FRAME":"TEME","TIME_SYSTEM":"UTC","MEAN_ELEMENT_THEORY":"SGP4","EPOCH":"2022-12-08T11:26:16.417824","MEAN_MOTION":"1.00271909","ECCENTRICITY":"0.00010300","INCLINATION":"0.0079","RA_OF_ASC_NODE":"64.1890","ARG_OF_PERICENTER":"194.2948","MEAN_ANOMALY":"314.3100","EPHEMERIS_TYPE":"0","CLASSIFICATION_TYPE":"U","NORAD_CAT_ID":"41942","ELEMENT_SET_NO":"999","REV_AT_EPOCH":"2132","BSTAR":"0.00000000000000","MEAN_MOTION_DOT":"-0.00000229","MEAN_MOTION_DDOT":"0.0000000000000","SEMIMAJOR_AXIS":"42164.697","PERIOD":"1436.095","APOAPSIS":"35790.905","PERIAPSIS":"35782.219","OBJECT_TYPE":"PAYLOAD","RCS_SIZE":"LARGE","COUNTRY_CODE":"SPN","LAUNCH_DATE":"2017-01-28","SITE":"FRGUI","DECAY_DATE":null,"FILE":"3684614","GP_ID":"219770062","TLE_LINE0":"0 HISPASAT 36W-1","TLE_LINE1":"1 41942U 17006A   22342.47657891 -.00000229  00000-0  00000-0 0  9998","TLE_LINE2":"2 41942   0.0079  64.1890 0001030 194.2948 314.3100  1.00271909 21326"},{"CCSDS_OMM_VERS":"2.0","COMMENT":"GENERATED VIA SPACE-TRACK.ORG API","CREATION_DATE":"2022-12-08T03:13:54","ORIGINATOR":"18 SPCS","OBJECT_NAME":"SBIRS GEO 4 (USA 273)","OBJECT_ID":"2017-004A","CENTER_NAME":"EARTH","REF_FRAME":"TEME","TIME_SYSTEM":"UTC","MEAN_ELEMENT_THEORY":"SGP4","EPOCH":"2022-12-07T19:21:14.878080","MEAN_MOTION":"1.00272655","ECCENTRICITY":"0.00026480","INCLINATION":"2.0208","RA_OF_ASC_NODE":"323.2951","ARG_OF_PERICENTER":"288.2436","MEAN_ANOMALY":"315.9350","EPHEMERIS_TYPE":"0","CLASSIFICATION_TYPE":"U","NORAD_CAT_ID":"41937","ELEMENT_SET_NO":"999","REV_AT_EPOCH":"2169","BSTAR":"0.00000000000000","MEAN_MOTION_DOT":"0.00000145","MEAN_MOTION_DDOT":"0.0000000000000","SEMIMAJOR_AXIS":"42164.488","PERIOD":"1436.084","APOAPSIS":"35797.518","PERIAPSIS":"35775.188","OBJECT_TYPE":"PAYLOAD","RCS_SIZE":"LARGE","COUNTRY_CODE":"US","LAUNCH_DATE":"2017-01-21","SITE":"AFETR","DECAY_DATE":null,"FILE":"3684212","GP_ID":"219736241","TLE_LINE0":"0 SBIRS GEO 4 (USA 273)","TLE_LINE1":"1 41937U 17004A   22341.80642220  .00000145  00000-0  00000-0 0  9992","TLE_LINE2":"2 41937   2.0208 323.2951 0002648 288.2436 315.9350  1.00272655 21698"},{"CCSDS_OMM_VERS":"2.0","COMMENT":"GENERATED VIA SPACE-TRACK.ORG API","CREATION_DATE":"2022-12-08T18:21:51","ORIGINATOR":"18 SPCS","OBJECT_NAME":"TJS-2","OBJECT_ID":"2017-001A","CENTER_NAME":"EARTH","REF_FRAME":"TEME","TIME_SYSTEM":"UTC","MEAN_ELEMENT_THEORY":"SGP4","EPOCH":"2022-12-08T13:39:04.273344","MEAN_MOTION":"1.00273170","ECCENTRICITY":"0.00054270","INCLINATION":"0.0458","RA_OF_ASC_NODE":"339.3855","ARG_OF_PERICENTER":"248.7023","MEAN_ANOMALY":"120.4628","EPHEMERIS_TYPE":"0","CLASSIFICATION_TYPE":"U","NORAD_CAT_ID":"41911","ELEMENT_SET_NO":"999","REV_AT_EPOCH":"2182","BSTAR":"0.00000000000000","MEAN_MOTION_DOT":"0.00000009","MEAN_MOTION_DDOT":"0.0000000000000","SEMIMAJOR_AXIS":"42164.344","PERIOD":"1436.077","APOAPSIS":"35809.091","PERIAPSIS":"35763.326","OBJECT_TYPE":"PAYLOAD","RCS_SIZE":"LARGE","COUNTRY_CODE":"PRC","LAUNCH_DATE":"2017-01-05","SITE":"XSC","DECAY_DATE":null,"FILE":"3684614","GP_ID":"219771060","TLE_LINE0":"0 TJS-2","TLE_LINE1":"1 41911U 17001A   22342.56879946  .00000009  00000-0  00000-0 0  9991","TLE_LINE2":"2 41911   0.0458 339.3855 0005427 248.7023 120.4628  1.00273170 21822"},{"CCSDS_OMM_VERS":"2.0","COMMENT":"GENERATED VIA SPACE-TRACK.ORG API","CREATION_DATE":"2022-12-08T18:21:51","ORIGINATOR":"18 SPCS","OBJECT_NAME":"STARONE D1","OBJECT_ID":"2016-082B","CENTER_NAME":"EARTH","REF_FRAME":"TEME","TIME_SYSTEM":"UTC","MEAN_ELEMENT_THEORY":"SGP4","EPOCH":"2022-12-08T12:55:46.058592","MEAN_MOTION":"1.00266285","ECCENTRICITY":"0.00023130","INCLINATION":"0.0315","RA_OF_ASC_NODE":"47.0184","ARG_OF_PERICENTER":"222.3188","MEAN_ANOMALY":"277.8884","EPHEMERIS_TYPE":"0","CLASSIFICATION_TYPE":"U","NORAD_CAT_ID":"41904","ELEMENT_SET_NO":"999","REV_AT_EPOCH":"2187","BSTAR":"0.00000000000000","MEAN_MOTION_DOT":"-0.00000195","MEAN_MOTION_DDOT":"0.0000000000000","SEMIMAJOR_AXIS":"42166.274","PERIOD":"1436.176","APOAPSIS":"35797.892","PERIAPSIS":"35778.386","OBJECT_TYPE":"PAYLOAD","RCS_SIZE":"LARGE","COUNTRY_CODE":"BRAZ","LAUNCH_DATE":"2016-12-21","SITE":"FRGUI","DECAY_DATE":null,"FILE":"3684614","GP_ID":"219770559","TLE_LINE0":"0 STARONE D1","TLE_LINE1":"1 41904U 16082B   22342.53872753 -.00000195  00000-0  00000-0 0  9994","TLE_LINE2":"2 41904   0.0315  47.0184 0002313 222.3188 277.8884  1.00266285 21870"},{"CCSDS_OMM_VERS":"2.0","COMMENT":"GENERATED VIA SPACE-TRACK.ORG API","CREATION_DATE":"2022-12-08T18:21:51","ORIGINATOR":"18 SPCS","OBJECT_NAME":"JCSAT 15","OBJECT_ID":"2016-082A","CENTER_NAME":"EARTH","REF_FRAME":"TEME","TIME_SYSTEM":"UTC","MEAN_ELEMENT_THEORY":"SGP4","EPOCH":"2022-12-08T13:56:47.471136","MEAN_MOTION":"1.00268283","ECCENTRICITY":"0.00017390","INCLINATION":"0.0237","RA_OF_ASC_NODE":"352.3194","ARG_OF_PERICENTER":"279.6738","MEAN_ANOMALY":"124.5811","EPHEMERIS_TYPE":"0","CLASSIFICATION_TYPE":"U","NORAD_CAT_ID":"41903","ELEMENT_SET_NO":"999","REV_AT_EPOCH":"2185","BSTAR":"0.00000000000000","MEAN_MOTION_DOT":"-0.00000336","MEAN_MOTION_DDOT":"0.0000000000000","SEMIMAJOR_AXIS":"42165.714","PERIOD":"1436.147","APOAPSIS":"35794.911","PERIAPSIS":"35780.246","OBJECT_TYPE":"PAYLOAD","RCS_SIZE":"LARGE","COUNTRY_CODE":"JPN","LAUNCH_DATE":"2016-12-21","SITE":"FRGUI","DECAY_DATE":null,"FILE":"3684614","GP_ID":"219770308","TLE_LINE0":"0 JCSAT 15","TLE_LINE1":"1 41903U 16082A   22342.58110499 -.00000336  00000-0  00000-0 0  9997","TLE_LINE2":"2 41903   0.0237 352.3194 0001739 279.6738 124.5811  1.00268283 21858"}]